[{"OBJECT_NAME":"CONTECSAT-1","OBJECT_ID":"2024-043V","EPOCH":"2026-03-09T22:02:35.535840","MEAN_MOTION":15.34615346,"ECCENTRICITY":0.00100896,"INCLINATION":97.5476,"RA_OF_ASC_NODE":207.3735,"ARG_OF_PERICENTER":223.9905,"MEAN_ANOMALY":136.0535,"EPHEMERIS_TYPE":0,"CLASSIFICATION_TYPE":"U","NORAD_CAT_ID":59117,"ELEMENT_SET_NO":999,"REV_AT_EPOCH":11201,"BSTAR":0.0004369392,"MEAN_MOTION_DOT":0.00014607,"MEAN_MOTION_DDOT":0},{"OBJECT_NAME":"STARLINK-32831","OBJECT_ID":"2025-022G","EPOCH":"2026-03-09T10:43:45.283296","MEAN_MOTION":15.30184747,"ECCENTRICITY":0.00011695,"INCLINATION":53.1582,"RA_OF_ASC_NODE":130.6971,"ARG_OF_PERICENTER":80.5355,"MEAN_ANOMALY":279.5778,"EPHEMERIS_TYPE":0,"CLASSIFICATION_TYPE":"U","NORAD_CAT_ID":62860,"ELEMENT_SET_NO":999,"REV_AT_EPOCH":6185,"BSTAR":0.00030727685,"MEAN_MOTION_DOT":8.748e-5,"MEAN_MOTION_DDOT":0}]
